NORAD_CAT_ID,OBJECT_NAME,OBJECT_TYPE,EPOCH,MEAN_MOTION,ECCENTRICITY,INCLINATION,RA_OF_ASC_NODE,ARG_OF_PERICENTER,MEAN_ANOMALY,BSTAR,MEAN_MOTION_DOT,MEAN_MOTION_DDOT,TLE_LINE0,TLE_LINE1,TLE_LINE2,SEMIMAJOR_AXIS,PERIOD,APOGEE,PERIGEE,DECAYED
53267.0,STARLINK-4060,PAYLOAD,2023-12-12 01:20:33,15.08842723,0.0001544,53.2176,269.1088,78.3957,281.7209,0.00024387,3.596e-05,0.0,0 STARLINK-4060,1 53267U 22086AB  23346.05594649  .00003596  00000-0  24387-3 0  9991,2 53267  53.2176 269.1088 0001544  78.3957 281.7209 15.08842723 77302,6917.872,95.437,540.805,538.669,0.0
53267.0,STARLINK-4060,PAYLOAD,2023-12-13 01:11:20,15.08852041,0.000175,53.2167,264.6551,72.1537,287.9646,0.00039728,6.042e-05,0.0,0 STARLINK-4060,1 53267U 22086AB  23347.04954475  .00006042  00000-0  39728-3 0  9992,2 53267  53.2167 264.6551 0001750  72.1537 287.9646 15.08852041 77635,6917.844,95.437,540.919,538.498,0.0
53267.0,STARLINK-4060,PAYLOAD,2023-12-13 21:51:21,15.08841008,0.0001707,53.2162,260.7887,108.4916,251.6262,0.00034932,5.276e-05,0.0,0 STARLINK-4060,1 53267U 22086AB  23347.91066484  .00005276  00000-0  34932-3 0  9992,2 53267  53.2162 260.7887 0001707 108.4916 251.6262 15.08841008 77762,6917.877,95.437,540.923,538.561,0.0
53267.0,STARLINK-4060,PAYLOAD,2023-12-14 01:02:07,15.08841107,0.0001495,53.216,260.1909,99.9103,260.2058,5.6861e-05,6.17e-06,0.0,0 STARLINK-4060,1 53267U 22086AB  23348.04314379  .00000617  00000-0  56861-4 0  9996,2 53267  53.2160 260.1909 0001495  99.9103 260.2058 15.08841107 77607,6917.877,95.437,540.776,538.708,0.0
53267.0,STARLINK-4060,PAYLOAD,2023-12-14 21:42:08,15.08839028,0.0001547,53.2156,256.3251,103.8004,256.316,1.4679e-05,-5.4e-07,0.0,0 STARLINK-4060,1 53267U 22086AB  23348.90426450 -.00000054  00000-0  14679-4 0  9992,2 53267  53.2156 256.3251 0001547 103.8004 256.3160 15.08839028 77915,6917.883,95.438,540.819,538.678,0.0
53267.0,STARLINK-4060,PAYLOAD,2023-12-14 23:17:31,15.08840652,0.0001535,53.2155,256.0286,95.2568,264.8599,3.1361e-05,2.11e-06,0.0,0 STARLINK-4060,1 53267U 22086AB  23348.97050404  .00000211  00000-0  31361-4 0  9992,2 53267  53.2155 256.0286 0001535  95.2568 264.8599 15.08840652 77921,6917.878,95.438,540.805,538.682,0.0
53267.0,STARLINK-4060,PAYLOAD,2023-12-15 21:32:56,15.08825933,0.0001858,53.2156,251.8648,125.0783,235.0383,-3.6239e-05,-8.65e-06,0.0,0 STARLINK-4060,1 53267U 22086AB  23349.89787514 -.00000865  00000-0 -36239-4 0  9999,2 53267  53.2156 251.8648 0001858 125.0783 235.0383 15.08825933 78068,6917.923,95.438,541.074,538.503,0.0
53267.0,STARLINK-4060,PAYLOAD,2023-12-15 23:08:20,15.08812791,0.0001239,53.2156,251.5677,89.9942,270.1192,-0.00021641,-3.728e-05,0.0,0 STARLINK-4060,1 53267U 22086AB  23349.96412265 -.00003728  00000-0 -21641-3 0  9996,2 53267  53.2156 251.5677 0001239  89.9942 270.1192 15.08812791 77891,6917.964,95.439,540.686,538.971,0.0
53267.0,STARLINK-4060,PAYLOAD,2023-12-16 21:23:43,15.0883326,0.0001334,53.2131,247.3943,69.1553,290.9582,-8.4807e-06,-4.23e-06,0.0,0 STARLINK-4060,1 53267U 22086AB  23350.89147871 -.00000423  00000-0 -84807-5 0  9992,2 53267  53.2131 247.3943 0001334  69.1553 290.9582 15.08833260 78211,6917.901,95.438,540.689,538.843,0.0
53267.0,STARLINK-4060,PAYLOAD,2023-12-17 00:34:29,15.08851399,0.0001336,53.2146,246.811,75.8067,284.3074,0.00029036,4.338e-05,0.0,0 STARLINK-4060,1 53267U 22086AB  23351.02395317  .00004338  00000-0  29036-3 0  9996,2 53267  53.2146 246.8110 0001336  75.8067 284.3074 15.08851399 78051,6917.846,95.437,540.635,538.786,0.0
53267.0,STARLINK-4060,PAYLOAD,2023-12-17 21:14:30,15.08846067,0.0001214,53.2149,242.9457,86.8029,273.3102,0.00057495,8.876e-05,0.0,0 STARLINK-4060,1 53267U 22086AB  23351.88507687  .00008876  00000-0  57495-3 0  9996,2 53267  53.2149 242.9457 0001214  86.8029 273.3102 15.08846067 78360,6917.862,95.437,540.567,538.887,0.0
53267.0,STARLINK-4060,PAYLOAD,2023-12-18 00:25:16,15.08860022,0.0001245,53.215,242.3479,83.4375,276.6759,0.00063244,9.797e-05,0.0,0 STARLINK-4060,1 53267U 22086AB  23352.01754909  .00009797  00000-0  63244-3 0  9995,2 53267  53.2150 242.3479 0001245  83.4375 276.6759 15.08860022 78384,6917.819,95.436,540.545,538.823,0.0
53267.0,STARLINK-4060,PAYLOAD,2023-12-18 21:05:17,15.08846138,0.0002206,53.2153,238.486,51.6944,308.4246,-9.7297e-05,-1.837e-05,0.0,0 STARLINK-4060,1 53267U 22086AB  23352.87867497 -.00001837  00000-0 -97297-4 0  9991,2 53267  53.2153 238.4860 0002206  51.6944 308.4246 15.08846138 78516,6917.862,95.437,541.253,538.201,0.0
53267.0,STARLINK-4060,PAYLOAD,2023-12-19 00:16:03,15.08846574,0.000183,53.2157,237.8885,65.1501,294.9682,-0.00010249,-1.919e-05,0.0,0 STARLINK-4060,1 53267U 22086AB  23353.01115238 -.00001919  00000-0 -10249-3 0  9999,2 53267  53.2157 237.8885 0001830  65.1501 294.9682 15.08846574 78350,6917.86,95.437,540.991,538.459,0.0
53267.0,STARLINK-4060,PAYLOAD,2023-12-19 22:31:27,15.08839195,0.0001568,53.2165,233.7225,88.0194,272.0978,-0.00022665,-3.893e-05,0.0,0 STARLINK-4060,1 53267U 22086AB  23353.93851530 -.00003893  00000-0 -22665-3 0  9990,2 53267  53.2165 233.7225 0001568  88.0194 272.0978 15.08839195 78493,6917.883,95.438,540.833,538.663,0.0
53267.0,STARLINK-4060,PAYLOAD,2023-12-20 19:11:28,15.08844204,0.0001613,53.216,229.8561,103.124,256.9932,0.00022344,3.27e-05,0.0,0 STARLINK-4060,1 53267U 22086AB  23354.79963375  .00003270  00000-0  22344-3 0  9997,2 53267  53.2160 229.8561 0001613 103.1240 256.9932 15.08844204 78622,6917.868,95.437,540.848,538.617,0.0
53267.0,STARLINK-4060,PAYLOAD,2023-12-20 22:22:14,15.08848221,0.0001855,53.2161,229.2656,73.1298,286.9897,0.00029107,4.348e-05,0.0,0 STARLINK-4060,1 53267U 22086AB  23354.93211327  .00004348  00000-0  29107-3 0  9997,2 53267  53.2161 229.2656 0001855  73.1298 286.9897 15.08848221 78827,6917.855,95.437,541.004,538.437,0.0
53267.0,STARLINK-4060,PAYLOAD,2023-12-21 22:13:01,15.08839583,0.0001606,53.2156,224.7981,118.0089,242.1066,9.0812e-05,1.158e-05,0.0,0 STARLINK-4060,1 53267U 22086AB  23355.92571553  .00001158  00000-0  90812-4 0  9995,2 53267  53.2156 224.7981 0001606 118.0089 242.1066 15.08839583 78972,6917.882,95.438,540.858,538.636,0.0
53267.0,STARLINK-4060,PAYLOAD,2023-12-22 20:28:25,15.08845765,0.0001408,53.2148,220.6385,111.478,248.6363,3.8689e-05,3.28e-06,0.0,0 STARLINK-4060,1 53267U 22086AB  23356.85307360  .00000328  00000-0  38689-4 0  9993,2 53267  53.2148 220.6385 0001408 111.4780 248.6363 15.08845765 79118,6917.863,95.437,540.702,538.754,0.0
53267.0,STARLINK-4060,PAYLOAD,2023-12-23 18:43:49,15.08842414,0.0001261,53.2147,216.4773,94.582,265.5316,0.00015974,2.255e-05,0.0,0 STARLINK-4060,1 53267U 22086AB  23357.78043668  .00002255  00000-0  15974-3 0  9996,2 53267  53.2147 216.4773 0001261  94.5820 265.5316 15.08842414 79073,6917.873,95.437,540.61,538.866,0.0
53267.0,STARLINK-4060,PAYLOAD,2023-12-23 20:19:12,15.08842785,0.0001254,53.2148,216.18,93.3385,266.7751,0.00015707,2.213e-05,0.0,0 STARLINK-4060,1 53267U 22086AB  23357.84667643  .00002213  00000-0  15707-3 0  9996,2 53267  53.2148 216.1800 0001254  93.3385 266.7751 15.08842785 79265,6917.872,95.437,540.604,538.869,0.0
53267.0,STARLINK-4060,PAYLOAD,2023-12-24 13:48:28,15.08826723,0.0001475,53.2143,212.9069,118.4711,241.6429,-5.0995e-05,-1.099e-05,0.0,0 STARLINK-4060,1 53267U 22086AB  23358.57532765 -.00001099  00000-0 -50995-4 0  9995,2 53267  53.2143 212.9069 0001475 118.4711 241.6429 15.08826723 79378,6917.921,95.438,540.806,538.766,0.0
53267.0,STARLINK-4060,PAYLOAD,2023-12-24 20:10:00,15.08836129,0.0001287,53.2138,211.7224,98.862,261.2518,8.4716e-05,1.06e-05,0.0,0 STARLINK-4060,1 53267U 22086AB  23358.84028516  .00001060  00000-0  84716-4 0  9993,2 53267  53.2138 211.7224 0001287  98.8620 261.2518 15.08836129 79236,6917.892,95.438,540.648,538.867,0.0
53267.0,STARLINK-4060,PAYLOAD,2023-12-24 21:45:23,15.08836523,0.0001325,53.2139,211.4251,102.8379,257.2762,0.00011774,1.586e-05,0.0,0 STARLINK-4060,1 53267U 22086AB  23358.90652471  .00001586  00000-0  11774-3 0  9999,2 53267  53.2139 211.4251 0001325 102.8379 257.2762 15.08836523 79429,6917.891,95.438,540.673,538.839,0.0
53267.0,STARLINK-4060,PAYLOAD,2023-12-24 23:20:46,15.0883942,0.000131,53.2137,211.1274,99.4964,260.6176,0.00016844,2.394e-05,0.0,0 STARLINK-4060,1 53267U 22086AB  23358.97276410  .00002394  00000-0  16844-3 0  9992,2 53267  53.2137 211.1274 0001310  99.4964 260.6176 15.08839420 79431,6917.882,95.438,540.653,538.841,0.0
53267.0,STARLINK-4060,PAYLOAD,2023-12-25 20:00:47,15.08849585,0.0001309,53.2129,207.2615,103.623,256.4908,0.00049181,7.55e-05,0.0,0 STARLINK-4060,1 53267U 22086AB  23359.83388281  .00007550  00000-0  49181-3 0  9997,2 53267  53.2129 207.2615 0001309 103.6230 256.4908 15.08849585 79562,6917.851,95.437,540.622,538.811,0.0
53267.0,STARLINK-4060,PAYLOAD,2023-12-26 19:51:34,15.08844113,0.0001298,53.2129,202.8004,98.1558,261.9581,0.00013263,1.824e-05,0.0,0 STARLINK-4060,1 53267U 22086AB  23360.82748271  .00001824  00000-0  13263-3 0  9997,2 53267  53.2129 202.8004 0001298  98.1558 261.9581 15.08844113 79530,6917.868,95.437,540.631,538.835,0.0
53267.0,STARLINK-4060,PAYLOAD,2023-12-26 21:26:57,15.08844321,0.0001296,53.2129,202.5031,95.6544,264.4596,0.00012653,1.727e-05,0.0,0 STARLINK-4060,1 53267U 22086AB  23360.89372239  .00001727  00000-0  12653-3 0  9995,2 53267  53.2129 202.5031 0001296  95.6544 264.4596 15.08844321 79728,6917.867,95.437,540.629,538.836,0.0
53267.0,STARLINK-4060,PAYLOAD,2023-12-27 19:42:21,15.08849222,0.0001429,53.2133,198.3403,75.9614,284.1537,0.00015081,2.114e-05,0.0,0 STARLINK-4060,1 53267U 22086AB  23361.82107931  .00002114  00000-0  15081-3 0  9993,2 53267  53.2133 198.3403 0001429  75.9614 284.1537 15.08849222 79869,6917.852,95.437,540.706,538.729,0.0
53267.0,STARLINK-4060,PAYLOAD,2023-12-28 13:11:35,15.08852851,0.0001461,53.2141,195.0673,76.4054,283.7101,0.00020216,2.932e-05,0.0,0 STARLINK-4060,1 53267U 22086AB  23362.54971341  .00002932  00000-0  20216-3 0  9991,2 53267  53.2141 195.0673 0001461  76.4054 283.7101 15.08852851 79977,6917.841,95.437,540.717,538.695,0.0
